[{"OBJECT_NAME":"ICEYE-X38","OBJECT_ID":"2024-043C","EPOCH":"2026-03-09T22:31:51.164832","MEAN_MOTION":15.11764469,"ECCENTRICITY":0.00034523,"INCLINATION":97.8238,"RA_OF_ASC_NODE":210.1187,"ARG_OF_PERICENTER":76.8106,"MEAN_ANOMALY":283.3508,"EPHEMERIS_TYPE":0,"CLASSIFICATION_TYPE":"U","NORAD_CAT_ID":59100,"ELEMENT_SET_NO":999,"REV_AT_EPOCH":9667,"BSTAR":0.00052269951,"MEAN_MOTION_DOT":8.853e-5,"MEAN_MOTION_DDOT":0},{"OBJECT_NAME":"CZ-6A DEB","OBJECT_ID":"2024-140AAU","EPOCH":"2026-03-09T16:48:50.985504","MEAN_MOTION":14.99127941,"ECCENTRICITY":0.00591225,"INCLINATION":89.196,"RA_OF_ASC_NODE":296.0099,"ARG_OF_PERICENTER":104.8686,"MEAN_ANOMALY":255.9106,"EPHEMERIS_TYPE":0,"CLASSIFICATION_TYPE":"U","NORAD_CAT_ID":61486,"ELEMENT_SET_NO":999,"REV_AT_EPOCH":8015,"BSTAR":0.0049724997,"MEAN_MOTION_DOT":0.00063139,"MEAN_MOTION_DDOT":0}]
